TIANYAN 01              
1 44881U 19093C   24067.19529754  .00001418  00000+0  17931-3 0  9995
2 44881  97.8352 145.9505 0013305 298.9562  61.0317 14.83338855227921
RS-44 & BREEZE-KM R/B   
1 44909U 19096E   24066.38119869  .00000013  00000+0  17190-4 0  9999
2 44909  82.5259 173.0761 0216341 291.6639  66.1547 12.79727097195822
BY70-2                  
1 45857U 20042B   24067.15559304  .00048223  00000+0  29918-2 0  9997
2 45857  97.9132 155.9659 0008544 209.4412 150.6336 15.09511463199069
SALSAT                  
1 46495U 20068K   24066.44602038  .00007112  00000+0  42584-3 0  9995
2 46495  97.8040  23.3819 0012813 309.6903  50.3195 15.11271566188789
RADFXSAT-2 (AO-109)     
1 47311U 21002C   24066.57825936  .00178332  00000+0  12090-2 0  9991
2 47311  60.6677 107.1773 0025456  68.9155 291.4674 15.73682714175147
UVSQ-SAT                
1 47438U 21006AB  24066.66215008  .00035619  00000+0  96635-3 0  9996
2 47438  97.3440 126.5441 0007149 215.7780 144.2987 15.37506787172935
LEDSAT                  
1 49069U 21073D   24067.13545868  .00013064  00000+0  59208-3 0  9990
2 49069  97.4493 139.2180 0019707 282.2905  77.6124 15.20805539140923
XW-3 (CAS-9)            
1 50466U 21131B   24067.15875976  .00000791  00000+0  26855-3 0  9991
2 50466  98.5308 152.7235 0005197  77.8419 282.3351 14.39402513115327
TEVEL-3                 
1 50988U 22002E   24067.15270271  .00053076  00000+0  11403-2 0  9991
2 50988  97.3943 139.8494 0003843  14.4702 345.6656 15.44504407119203
TEVEL-8                 
1 50989U 22002F   24067.18553003  .00051427  00000+0  11093-2 0  9995
2 50989  97.3961 139.9683 0003810  12.8108 347.3236 15.44393827119206
TEVEL-5                 
1 50998U 22002Q   24067.13768117  .00056824  00000+0  11311-2 0  9993
2 50998  97.3938 140.7144 0004320   1.4176 358.7085 15.46726312119263
TEVEL-6                 
1 50999U 22002R   24067.13870664  .00057684  00000+0  11503-2 0  9993
2 50999  97.3936 140.6984 0004300   1.3892 358.7369 15.46669941119264
TEVEL-1                 
1 51013U 22002AF  24067.17399749  .00052864  00000+0  11399-2 0  9993
2 51013  97.3936 139.7586 0003674  13.6595 346.4752 15.44397783119202
TEVEL-7                 
1 51062U 22002CG  24067.17959951  .00052769  00000+0  11349-2 0  9993
2 51062  97.3955 139.9341 0003764  13.0398 347.0947 15.44474931119207
TEVEL-4                 
1 51063U 22002CH  24067.13831340  .00050014  00000+0  10835-2 0  9991
2 51063  97.3955 139.8284 0003728  13.0742 347.0602 15.44272340119192
TEVEL-2                 
1 51069U 22002CP  24067.15233643  .00052666  00000+0  11305-2 0  9999
2 51069  97.3941 139.8159 0003794  13.4450 346.6899 15.44532078119209
GREENCUBE               
1 53106U 22080B   24064.84326825 -.00000003  00000+0  00000+0 0  9993
2 53106  70.1320 228.7693 0008270 127.5810 232.5602  6.42557706 38562
MONITOR-1 (RS32S)       
1 53374U 22096E   24066.71123572  .00487361  93364-4  15433-2 0  9993
2 53374  97.3799 346.2982 0006342 112.7618 247.4326 15.91200292 88604
KUZBASS-300 (RS34S)     
1 53375U 22096F   24067.11678533  .00115689  00000+0  12074-2 0  9990
2 53375  97.3933 343.6882 0003999  95.0746 265.0969 15.64122926 88454
UTMN (RS23S)            
1 53376U 22096G   24067.14768850  .00128193  00000+0  11619-2 0  9994
2 53376  97.3913 344.3678 0004183  89.4888 270.6852 15.67626259 88504
MIET-AIS (RS28S)        
1 53377U 22096H   24067.12778646  .00087018  00000+0  10722-2 0  9991
2 53377  97.3963 343.1150 0003604  89.0613 271.1056 15.59915630 88418
KAI-1 (RS26S)           
1 53378U 22096J   24067.11527527  .00050960  00000+0  82456-3 0  9991
2 53378  97.4004 341.7016 0002901  74.3870 285.7703 15.52666502 88315
ISOI (RS19S)            
1 53381U 22096M   24067.14432796  .00083718  00000+0  97443-3 0  9990
2 53381  97.3981 343.8369 0004418 106.1168 254.0576 15.61417988 88460
CUBESX-HSE-2 (RS21S)    
1 53383U 22096P   24067.12737100  .00129852  00000+0  12038-2 0  9993
2 53383  97.3920 344.5747 0005639 111.6922 248.4939 15.67052532 88510
SIREN (RS30S)           
1 53384U 22096Q   24067.10943112  .00072018  00000+0  99041-3 0  9995
2 53384  97.3980 342.8604 0004453 113.7885 246.3838 15.57036191 88397
CAS-5A (FO-118)         
1 54684U 22167C   24067.16271310  .00023288  00000+0  96741-3 0  9997
2 54684  97.5893 210.1796 0011220 142.9094 217.2920 15.23764812 68737
STRATOSAT-TK 1 (RS52S)  
1 57167U 23091B   24067.13966964  .00011079  00000+0  70486-3 0  9999
2 57167  97.6281 120.7021 0017721 108.4046 251.9111 15.08837658 38153
UMKA 1 (RS40S)          
1 57172U 23091G   24067.12995717  .00004890  00000+0  33799-3 0  9991
2 57172  97.6279 120.2535 0018996 108.2817 252.0479 15.06046507 38129
CUBESX-HSE 3 (RS42S)    
1 57178U 23091N   24067.09035820  .00007882  00000+0  53093-3 0  9996
2 57178  97.6314 120.4270 0019184 103.8994 256.4369 15.06808393 38125
MONITOR-4 (RS57S)       
1 57182U 23091S   24067.11802630  .00006110  00000+0  41604-3 0  9993
2 57182  97.6296 120.3530 0019699 104.6372 255.7041 15.06495475 38129
MONITOR-2 (RS39S)       
1 57184U 23091U   24067.17490947  .00004216  00000+0  28986-3 0  9998
2 57184  97.6298 120.6003 0015824  98.3860 261.9161 15.06370343 38148
SVYATOBOR 1 (RS60S)     
1 57187U 23091X   24067.14991720  .00006335  00000+0  42172-3 0  9990
2 57187  97.6312 120.7908 0015552  96.4930 263.8069 15.07378845 38153
VIZARD-METEO (RS38S)    
1 57189U 23091Z   24067.11730951  .00007119  00000+0  46153-3 0  9990
2 57189  97.6297 120.9633 0014404  94.9584 265.3289 15.08329099 38167
NANOZOND 1 (RS49S)      
1 57190U 23091AA  24067.12208622  .00009220  00000+0  57202-3 0  9990
2 57190  97.6275 121.1779 0012886 100.0746 260.1937 15.09873043 38189
POLYTECH-UNIVERSE 3 (R*)
1 57191U 23091AB  24067.10660063  .00004884  00000+0  33554-3 0  9995
2 57191  97.6264 120.2767 0021279 114.8285 245.5158 15.06236076 38124
UTMN 2 (RS27S)          
1 57203U 23091AP  24067.14766262  .00006978  00000+0  45629-3 0  9993
2 57203  97.6304 120.9212 0014864  95.0419 265.2506 15.08011671 38160
ARCCUBE 1 (RS25S)       
1 57205U 23091AR  24067.15522127  .00012605  00000+0  76782-3 0  9994
2 57205  97.6254 121.2253 0012964 101.4462 258.8224 15.10456415 38194
KUZGTU 1 (RS47S)        
1 57217U 23091AV  24067.15814620  .00007727  00000+0  52163-3 0  9995
2 57217  97.6288 120.4100 0019077 104.9306 255.4035 15.06735575 38132
HADES-D (SO-121)        
1 58567U 23174CY  24066.19021079  .00032459  00000+0  15213-2 0  9991
2 58567  97.4661 142.4078 0014342 228.7148 131.2853 15.19531687 18095
